[{"OBJECT_NAME":"STARLINK-11581 [DTC]","OBJECT_ID":"2025-043N","EPOCH":"2025-10-04T12:59:45.866112","MEAN_MOTION":15.70881207,"ECCENTRICITY":0.0001494,"INCLINATION":42.998,"RA_OF_ASC_NODE":111.9629,"ARG_OF_PERICENTER":262.5669,"MEAN_ANOMALY":97.5029,"EPHEMERIS_TYPE":0,"CLASSIFICATION_TYPE":"U","NORAD_CAT_ID":63144,"ELEMENT_SET_NO":999,"REV_AT_EPOCH":3491,"BSTAR":0.0023219,"MEAN_MOTION_DOT":0.0030938,"MEAN_MOTION_DDOT":0},{"OBJECT_NAME":"STARLINK-32949","OBJECT_ID":"2025-043P","EPOCH":"2025-10-04T16:58:17.162112","MEAN_MOTION":15.2760601,"ECCENTRICITY":8.64e-5,"INCLINATION":43.0036,"RA_OF_ASC_NODE":177.4124,"ARG_OF_PERICENTER":261.2016,"MEAN_ANOMALY":98.8737,"EPHEMERIS_TYPE":0,"CLASSIFICATION_TYPE":"U","NORAD_CAT_ID":63145,"ELEMENT_SET_NO":999,"REV_AT_EPOCH":3407,"BSTAR":0.0022555,"MEAN_MOTION_DOT":0.00062379,"MEAN_MOTION_DDOT":0},{"OBJECT_NAME":"STARLINK-32952","OBJECT_ID":"2025-043Q","EPOCH":"2025-10-03T04:10:32.321280","MEAN_MOTION":15.27638884,"ECCENTRICITY":0.00017189,"INCLINATION":43.0038,"RA_OF_ASC_NODE":192.5956,"ARG_OF_PERICENTER":259.371,"MEAN_ANOMALY":100.6948,"EPHEMERIS_TYPE":0,"CLASSIFICATION_TYPE":"U","NORAD_CAT_ID":63146,"ELEMENT_SET_NO":999,"REV_AT_EPOCH":3382,"BSTAR":0.0024713934,"MEAN_MOTION_DOT":0.00068503,"MEAN_MOTION_DDOT":0},{"OBJECT_NAME":"STARLINK-32936","OBJECT_ID":"2025-043R","EPOCH":"2025-10-03T02:40:05.051712","MEAN_MOTION":15.2763323,"ECCENTRICITY":0.00051759,"INCLINATION":43.0009,"RA_OF_ASC_NODE":193.0031,"ARG_OF_PERICENTER":239.1107,"MEAN_ANOMALY":120.9236,"EPHEMERIS_TYPE":0,"CLASSIFICATION_TYPE":"U","NORAD_CAT_ID":63147,"ELEMENT_SET_NO":999,"REV_AT_EPOCH":3318,"BSTAR":0.0019163586,"MEAN_MOTION_DOT":0.00052953,"MEAN_MOTION_DDOT":0},{"OBJECT_NAME":"STARLINK-32937","OBJECT_ID":"2025-043S","EPOCH":"2025-10-03T04:15:39.400704","MEAN_MOTION":15.27588408,"ECCENTRICITY":0.00016923,"INCLINATION":42.999,"RA_OF_ASC_NODE":185.7106,"ARG_OF_PERICENTER":269.6341,"MEAN_ANOMALY":90.4317,"EPHEMERIS_TYPE":0,"CLASSIFICATION_TYPE":"U","NORAD_CAT_ID":63148,"ELEMENT_SET_NO":999,"REV_AT_EPOCH":3327,"BSTAR":0.0031066915,"MEAN_MOTION_DOT":0.00086255,"MEAN_MOTION_DDOT":0},{"OBJECT_NAME":"STARLINK-32939","OBJECT_ID":"2025-043T","EPOCH":"2025-10-03T04:00:51.675264","MEAN_MOTION":15.27627289,"ECCENTRICITY":0.00012977,"INCLINATION":42.9997,"RA_OF_ASC_NODE":185.6351,"ARG_OF_PERICENTER":282.9885,"MEAN_ANOMALY":77.0822,"EPHEMERIS_TYPE":0,"CLASSIFICATION_TYPE":"U","NORAD_CAT_ID":63149,"ELEMENT_SET_NO":999,"REV_AT_EPOCH":3327,"BSTAR":0.0022031642,"MEAN_MOTION_DOT":0.00060955,"MEAN_MOTION_DDOT":0},{"OBJECT_NAME":"STARLINK-32919","OBJECT_ID":"2025-043U","EPOCH":"2025-10-04T10:10:10.460352","MEAN_MOTION":15.27586287,"ECCENTRICITY":0.0001232,"INCLINATION":42.9986,"RA_OF_ASC_NODE":178.7193,"ARG_OF_PERICENTER":279.2863,"MEAN_ANOMALY":80.7849,"EPHEMERIS_TYPE":0,"CLASSIFICATION_TYPE":"U","NORAD_CAT_ID":63150,"ELEMENT_SET_NO":999,"REV_AT_EPOCH":3346,"BSTAR":0.0016081,"MEAN_MOTION_DOT":0.00044263,"MEAN_MOTION_DDOT":0},{"OBJECT_NAME":"STARLINK-32876","OBJECT_ID":"2025-043V","EPOCH":"2025-10-04T10:56:15.223200","MEAN_MOTION":15.2759556,"ECCENTRICITY":5.59e-5,"INCLINATION":43.0022,"RA_OF_ASC_NODE":178.1037,"ARG_OF_PERICENTER":280.9458,"MEAN_ANOMALY":79.1331,"EPHEMERIS_TYPE":0,"CLASSIFICATION_TYPE":"U","NORAD_CAT_ID":63151,"ELEMENT_SET_NO":999,"REV_AT_EPOCH":3347,"BSTAR":0.0013686,"MEAN_MOTION_DOT":0.00037609,"MEAN_MOTION_DDOT":0},{"OBJECT_NAME":"STARLINK-32915","OBJECT_ID":"2025-043W","EPOCH":"2025-10-04T17:55:52.178880","MEAN_MOTION":15.27594414,"ECCENTRICITY":0.0001423,"INCLINATION":42.9998,"RA_OF_ASC_NODE":183.7314,"ARG_OF_PERICENTER":255.4652,"MEAN_ANOMALY":104.6042,"EPHEMERIS_TYPE":0,"CLASSIFICATION_TYPE":"U","NORAD_CAT_ID":63152,"ELEMENT_SET_NO":999,"REV_AT_EPOCH":3343,"BSTAR":0.0020043,"MEAN_MOTION_DOT":0.00055332,"MEAN_MOTION_DDOT":0},{"OBJECT_NAME":"STARLINK-11602 [DTC]","OBJECT_ID":"2025-048A","EPOCH":"2025-10-04T10:33:58.464000","MEAN_MOTION":15.70917184,"ECCENTRICITY":8.24e-5,"INCLINATION":43.0012,"RA_OF_ASC_NODE":182.0348,"ARG_OF_PERICENTER":294.9308,"MEAN_ANOMALY":65.1474,"EPHEMERIS_TYPE":0,"CLASSIFICATION_TYPE":"U","NORAD_CAT_ID":63183,"ELEMENT_SET_NO":999,"REV_AT_EPOCH":3356,"BSTAR":0.0018053,"MEAN_MOTION_DOT":0.00238742,"MEAN_MOTION_DDOT":0},{"OBJECT_NAME":"STARLINK-11617 [DTC]","OBJECT_ID":"2025-048B","EPOCH":"2025-10-04T18:04:06.317760","MEAN_MOTION":15.71006376,"ECCENTRICITY":4.75e-5,"INCLINATION":43.0001,"RA_OF_ASC_NODE":180.0776,"ARG_OF_PERICENTER":279.8121,"MEAN_ANOMALY":80.2693,"EPHEMERIS_TYPE":0,"CLASSIFICATION_TYPE":"U","NORAD_CAT_ID":63184,"ELEMENT_SET_NO":999,"REV_AT_EPOCH":3399,"BSTAR":0.0024936,"MEAN_MOTION_DOT":0.00335106,"MEAN_MOTION_DDOT":0},{"OBJECT_NAME":"STARLINK-11618 [DTC]","OBJECT_ID":"2025-048C","EPOCH":"2025-10-03T15:21:44.305632","MEAN_MOTION":15.70973274,"ECCENTRICITY":0.00013081,"INCLINATION":42.999,"RA_OF_ASC_NODE":186.3365,"ARG_OF_PERICENTER":259.4894,"MEAN_ANOMALY":100.5826,"EPHEMERIS_TYPE":0,"CLASSIFICATION_TYPE":"U","NORAD_CAT_ID":63185,"ELEMENT_SET_NO":999,"REV_AT_EPOCH":3381,"BSTAR":0.0026917173,"MEAN_MOTION_DOT":0.00362458,"MEAN_MOTION_DDOT":0},{"OBJECT_NAME":"STARLINK-11646 [DTC]","OBJECT_ID":"2025-048D","EPOCH":"2025-10-04T18:34:30.982944","MEAN_MOTION":15.70987217,"ECCENTRICITY":8.46e-5,"INCLINATION":43.0001,"RA_OF_ASC_NODE":179.3504,"ARG_OF_PERICENTER":72.5953,"MEAN_ANOMALY":287.5008,"EPHEMERIS_TYPE":0,"CLASSIFICATION_TYPE":"U","NORAD_CAT_ID":63186,"ELEMENT_SET_NO":999,"REV_AT_EPOCH":3400,"BSTAR":0.0022308,"MEAN_MOTION_DOT":0.00298145,"MEAN_MOTION_DDOT":0},{"OBJECT_NAME":"STARLINK-11622 [DTC]","OBJECT_ID":"2025-048E","EPOCH":"2025-10-03T14:51:20.357568","MEAN_MOTION":15.71015852,"ECCENTRICITY":0.00018158,"INCLINATION":42.9988,"RA_OF_ASC_NODE":187.0596,"ARG_OF_PERICENTER":245.414,"MEAN_ANOMALY":114.6539,"EPHEMERIS_TYPE":0,"CLASSIFICATION_TYPE":"U","NORAD_CAT_ID":63187,"ELEMENT_SET_NO":999,"REV_AT_EPOCH":3381,"BSTAR":0.003989636,"MEAN_MOTION_DOT":0.00550954,"MEAN_MOTION_DDOT":0},{"OBJECT_NAME":"STARLINK-11642 [DTC]","OBJECT_ID":"2025-048F","EPOCH":"2025-10-03T11:17:38.683968","MEAN_MOTION":15.70833687,"ECCENTRICITY":0.00012504,"INCLINATION":43.0005,"RA_OF_ASC_NODE":187.6543,"ARG_OF_PERICENTER":285.9738,"MEAN_ANOMALY":74.0992,"EPHEMERIS_TYPE":0,"CLASSIFICATION_TYPE":"U","NORAD_CAT_ID":63188,"ELEMENT_SET_NO":999,"REV_AT_EPOCH":3379,"BSTAR":0.0016592024,"MEAN_MOTION_DOT":0.0021807,"MEAN_MOTION_DDOT":0},{"OBJECT_NAME":"STARLINK-11639 [DTC]","OBJECT_ID":"2025-048G","EPOCH":"2025-10-03T11:02:22.155360","MEAN_MOTION":15.70936326,"ECCENTRICITY":0.00023978,"INCLINATION":43.0001,"RA_OF_ASC_NODE":187.5675,"ARG_OF_PERICENTER":38.7108,"MEAN_ANOMALY":321.3931,"EPHEMERIS_TYPE":0,"CLASSIFICATION_TYPE":"U","NORAD_CAT_ID":63189,"ELEMENT_SET_NO":999,"REV_AT_EPOCH":3379,"BSTAR":0.0037713617,"MEAN_MOTION_DOT":0.00516875,"MEAN_MOTION_DDOT":0}]
