STARLINK-11581 [DTC]    
1 63144U 25043N   25277.54150308  .00309380  00000+0  23219-2 0  9992
2 63144  42.9980 111.9629 0001494 262.5669  97.5029 15.70881207 34913
STARLINK-32949          
1 63145U 25043P   25277.70714308  .00062379  00000+0  22555-2 0  9993
2 63145  43.0036 177.4124 0000864 261.2016  98.8737 15.27606010 34073
STARLINK-32952          
1 63146U 25043Q   25276.17398520  .00068503  00000+0  24714-2 0  9992
2 63146  43.0038 192.5956 0001718 259.3710 100.6948 15.27638884 33827
STARLINK-32936          
1 63147U 25043R   25276.11116958  .00052953  00000+0  19164-2 0  9995
2 63147  43.0009 193.0031 0005175 239.1107 120.9236 15.27633230 33187
STARLINK-32937          
1 63148U 25043S   25276.17753936  .00086255  00000+0  31067-2 0  9993
2 63148  42.9990 185.7106 0001692 269.6341  90.4317 15.27588408 33271
STARLINK-32939          
1 63149U 25043T   25276.16726476  .00060955  00000+0  22032-2 0  9993
2 63149  42.9997 185.6351 0001297 282.9885  77.0822 15.27627289 33275
STARLINK-32919          
1 63150U 25043U   25277.42373218  .00044263  00000+0  16081-2 0  9998
2 63150  42.9986 178.7193 0001232 279.2863  80.7849 15.27586287 33469
STARLINK-32876          
1 63151U 25043V   25277.45573175  .00037609  00000+0  13686-2 0  9990
2 63151  43.0022 178.1037 0000559 280.9458  79.1331 15.27595560 33477
STARLINK-32915          
1 63152U 25043W   25277.74713170  .00055332  00000+0  20043-2 0  9992
2 63152  42.9998 183.7314 0001423 255.4652 104.6042 15.27594414 33438
STARLINK-11602 [DTC]    
1 63183U 25048A   25277.44026000  .00238742  00000+0  18053-2 0  9993
2 63183  43.0012 182.0348 0000824 294.9308  65.1474 15.70917184 33565
STARLINK-11617 [DTC]    
1 63184U 25048B   25277.75285090  .00335106  00000+0  24936-2 0  9993
2 63184  43.0001 180.0776 0000475 279.8121  80.2693 15.71006376 33995
STARLINK-11618 [DTC]    
1 63185U 25048C   25276.64009613  .00362458  00000+0  26917-2 0  9997
2 63185  42.9990 186.3365 0001308 259.4894 100.5826 15.70973274 33815
STARLINK-11646 [DTC]    
1 63186U 25048D   25277.77396971  .00298145  00000+0  22308-2 0  9990
2 63186  43.0001 179.3504 0000846  72.5953 287.5008 15.70987217 34006
STARLINK-11622 [DTC]    
1 63187U 25048E   25276.61898562  .00550954  00000+0  39896-2 0  9995
2 63187  42.9988 187.0596 0001815 245.4140 114.6539 15.71015852 33817
STARLINK-11642 [DTC]    
1 63188U 25048F   25276.47058662  .00218070  00000+0  16592-2 0  9997
2 63188  43.0005 187.6543 0001250 285.9738  74.0992 15.70833687 33795
STARLINK-11639 [DTC]    
1 63189U 25048G   25276.45997865  .00516875  00000+0  37714-2 0  9996
2 63189  43.0001 187.5675 0002397  38.7108 321.3931 15.70936326 33790
